CTC2_L_00680007-03
1 41637U 24503PJ  26070.40853009  .00000000  00000+0  00000-0 0  9998
2 41637  55.0000 180.0000 0000000   0.0000 144.0000  1.86512155    16
CTC2_L_00680007-04
1 41638U 23123OL  26070.40853009  .00000000  00000+0  00000-0 0  9996
2 41638  55.0000 180.0000 0000000   0.0000 180.0000  1.86512155    17
CTC2_L_00680007-05
1 41639U 23030EZ  26070.40853009  .00000000  00000+0  00000-0 0  9994
2 41639  55.0000 180.0000 0000000   0.0000 216.0000  1.86512155    18
CTC2_L_00680007-06
1 41640U 25665DT  26070.40853009  .00000000  00000+0  00000-0 0  9992
2 41640  55.0000 180.0000 0000000   0.0000 252.0000  1.86512155    10
CTC2_L_00680007-07
1 41641U 24250JO  26070.40853009  .00000000  00000+0  00000-0 0  9992
2 41641  55.0000 180.0000 0000000   0.0000 288.0000  1.86512155    10
CTC2_L_00680007-08
1 41642U 22871MU  26070.40853009  .00000000  00000+0  00000-0 0  9990
2 41642  55.0000 180.0000 0000000   0.0000 324.0000  1.86512155    12
CTC2_L_00680007-09
1 41643U 25947IY  26070.40853009  .00000000  00000+0  00000-0 0  9998
2 41643  55.0000 180.0000 0000000   0.0000   0.0000  1.86512155    14
CTC2_L_00680007-10
1 41644U 26648YP  26070.40853009  .00000000  00000+0  00000-0 0  9998
2 41644  55.0000 180.0000 0000000   0.0000  36.0000  1.86512155    14
CTC2_L_00680008-01
1 41645U 24038WE  26070.40853009  .00000000  00000+0  00000-0 0  9990
2 41645  55.0000 210.0000 0000000   0.0000  84.0000  1.86512155    12
CTC2_L_00680008-02
1 41646U 24173TF  26070.40853009  .00000000  00000+0  00000-0 0  9991
2 41646  55.0000 210.0000 0000000   0.0000 120.0000  1.86512155    14
CTC2_L_00680008-03
1 41647U 24334AI  26070.40853009  .00000000  00000+0  00000-0 0  9991
2 41647  55.0000 210.0000 0000000   0.0000 156.0000  1.86512155    14
CTC2_L_00680008-04
1 41648U 25311HV  26070.40853009  .00000000  00000+0  00000-0 0  9998
2 41648  55.0000 210.0000 0000000   0.0000 192.0000  1.86512155    15
CTC2_L_00680008-05
1 41649U 26125JU  26070.40853009  .00000000  00000+0  00000-0 0  9993
2 41649  55.0000 210.0000 0000000   0.0000 228.0000  1.86512155    16
CTC2_L_00680008-06
1 41650U 22851GB  26070.40853009  .00000000  00000+0  00000-0 0  9997
2 41650  55.0000 210.0000 0000000   0.0000 264.0000  1.86512155    18
CTC2_L_00680008-07
1 41651U 24637NJ  26070.40853009  .00000000  00000+0  00000-0 0  9992
2 41651  55.0000 210.0000 0000000   0.0000 300.0000  1.86512155    10
CTC2_L_00680008-08
1 41652U 23814HJ  26070.40853009  .00000000  00000+0  00000-0 0  9999
2 41652  55.0000 210.0000 0000000   0.0000 336.0000  1.86512155    10
CTC2_L_00680008-09
1 41653U 24341YT  26070.40853009  .00000000  00000+0  00000-0 0  9996
2 41653  55.0000 210.0000 0000000   0.0000  12.0000  1.86512155    12
CTC2_L_00680008-10
1 41654U 22896FJ  26070.40853009  .00000000  00000+0  00000-0 0  9990
2 41654  55.0000 210.0000 0000000   0.0000  48.0000  1.86512155    12
CTC2_L_00680009-01
1 41655U 23117OI  26070.40853009  .00000000  00000+0  00000-0 0  9998
2 41655  55.0000 240.0000 0000000   0.0000  96.0000  1.86512155    19
CTC2_L_00680009-02
1 41656U 24266JR  26070.40853009  .00000000  00000+0  00000-0 0  9995
2 41656  55.0000 240.0000 0000000   0.0000 132.0000  1.86512155    11
CTC2_L_00680009-03
1 41657U 26888KJ  26070.40853009  .00000000  00000+0  00000-0 0  9998
2 41657  55.0000 240.0000 0000000   0.0000 168.0000  1.86512155    11
CTC2_L_00680009-04
1 41658U 26744PF  26070.40853009  .00000000  00000+0  00000-0 0  9990
2 41658  55.0000 240.0000 0000000   0.0000 204.0000  1.86512155    13
CTC2_L_00680009-05
1 41659U 26183PN  26070.40853009  .00000000  00000+0  00000-0 0  9998
2 41659  55.0000 240.0000 0000000   0.0000 240.0000  1.86512155    14
CTC2_L_00680009-06
1 41660U 24062IN  26070.40853009  .00000000  00000+0  00000-0 0  9994
2 41660  55.0000 240.0000 0000000   0.0000 276.0000  1.86512155    15
CTC2_L_00680009-07
1 41661U 24926MA  26070.40853009  .00000000  00000+0  00000-0 0  9994
2 41661  55.0000 240.0000 0000000   0.0000 312.0000  1.86512155    17
CTC2_L_00680009-08
1 41662U 23202NW  26070.40853009  .00000000  00000+0  00000-0 0  9991
2 41662  55.0000 240.0000 0000000   0.0000 348.0000  1.86512155    17
CTC2_L_00680009-09
1 41663U 25938VT  26070.40853009  .00000000  00000+0  00000-0 0  9990
2 41663  55.0000 240.0000 0000000   0.0000  24.0000  1.86512155    19
CTC2_L_00680009-10
1 41664U 24215HB  26070.40853009  .00000000  00000+0  00000-0 0  9998
2 41664  55.0000 240.0000 0000000   0.0000  60.0000  1.86512155    10
CTC2_L_00680010-01
1 41665U 22370BA  26070.40853009  .00000000  00000+0  00000-0 0  9999
2 41665  55.0000 270.0000 0000000   0.0000 108.0000  1.86512155    17
CTC2_L_00680010-02
1 41666U 25524JZ  26070.40853009  .00000000  00000+0  00000-0 0  9994
2 41666  55.0000 270.0000 0000000   0.0000 144.0000  1.86512155    18
CTC2_L_00680010-03
1 41667U 22850JH  26070.40853009  .00000000  00000+0  00000-0 0  9994
2 41667  55.0000 270.0000 0000000   0.0000 180.0000  1.86512155    19
CTC2_L_00680010-04
1 41668U 26115VX  26070.40853009  .00000000  00000+0  00000-0 0  9993
2 41668  55.0000 270.0000 0000000   0.0000 216.0000  1.86512155    10
CTC2_L_00680010-05
1 41669U 22304GY  26070.40853009  .00000000  00000+0  00000-0 0  9990
2 41669  55.0000 270.0000 0000000   0.0000 252.0000  1.86512155    11
CTC2_L_00680010-06
1 41670U 24300BD  26070.40853009  .00000000  00000+0  00000-0 0  9990
2 41670  55.0000 270.0000 0000000   0.0000 288.0000  1.86512155    12
CTC2_L_00680010-07
1 41671U 25931FI  26070.40853009  .00000000  00000+0  00000-0 0  9992
2 41671  55.0000 270.0000 0000000   0.0000 324.0000  1.86512155    14
CTC2_L_00680010-08
1 41672U 26363FA  26070.40853009  .00000000  00000+0  00000-0 0  9993
2 41672  55.0000 270.0000 0000000   0.0000   0.0000  1.86512155    16
CTC2_L_00680010-09
1 41673U 25418QJ  26070.40853009  .00000000  00000+0  00000-0 0  9994
2 41673  55.0000 270.0000 0000000   0.0000  36.0000  1.86512155    16
CTC2_L_00680010-10
1 41674U 24222SP  26070.40853009  .00000000  00000+0  00000-0 0  9997
2 41674  55.0000 270.0000 0000000   0.0000  72.0000  1.86512155    17
CTC2_L_00680011-01
1 41675U 26578HT  26070.40853009  .00000000  00000+0  00000-0 0  9994
2 41675  55.0000 300.0000 0000000   0.0000 120.0000  1.86512155    16
CTC2_L_00680011-02
1 41676U 24514HI  26070.40853009  .00000000  00000+0  00000-0 0  9993
2 41676  55.0000 300.0000 0000000   0.0000 156.0000  1.86512155    16
CTC2_L_00680011-03
1 41677U 25528KJ  26070.40853009  .00000000  00000+0  00000-0 0  9990
2 41677  55.0000 300.0000 0000000   0.0000 192.0000  1.86512155    17
CTC2_L_00680011-04
1 41678U 23695RZ  26070.40853009  .00000000  00000+0  00000-0 0  9994
2 41678  55.0000 300.0000 0000000   0.0000 228.0000  1.86512155    18
CTC2_L_00680011-05
1 41679U 22180V   26070.40853009  .00000000  00000+0  00000-0 0  9993
2 41679  55.0000 300.0000 0000000   0.0000 264.0000  1.86512155    19
CTC2_L_00680011-06
1 41680U 25550AT  26070.40853009  .00000000  00000+0  00000-0 0  9999
2 41680  55.0000 300.0000 0000000   0.0000 300.0000  1.86512155    12
CTC2_L_00680011-07
1 41681U 22714FN  26070.40853009  .00000000  00000+0  00000-0 0  9999
2 41681  55.0000 300.0000 0000000   0.0000 336.0000  1.86512155    12
CTC2_L_00680011-08
1 41682U 24906XN  26070.40853009  .00000000  00000+0  00000-0 0  9995
2 41682  55.0000 300.0000 0000000   0.0000  12.0000  1.86512155    14
CTC2_L_00680011-09
1 41683U 26882GK  26070.40853009  .00000000  00000+0  00000-0 0  9991
2 41683  55.0000 300.0000 0000000   0.0000  48.0000  1.86512155    14
CTC2_L_00680011-10
1 41684U 25817DM  26070.40853009  .00000000  00000+0  00000-0 0  9999
2 41684  55.0000 300.0000 0000000   0.0000  84.0000  1.86512155    15
CTC2_L_00680012-01
1 41685U 22089MW  26070.40853009  .00000000  00000+0  00000-0 0  9998
2 41685  55.0000 330.0000 0000000   0.0000 132.0000  1.86512155    13
CTC2_L_00680012-02
1 41686U 26346DA  26070.40853009  .00000000  00000+0  00000-0 0  9999
2 41686  55.0000 330.0000 0000000   0.0000 168.0000  1.86512155    13
CTC2_L_00680012-03
1 41687U 25964OL  26070.40853009  .00000000  00000+0  00000-0 0  9995
2 41687  55.0000 330.0000 0000000   0.0000 204.0000  1.86512155    15
CTC2_L_00680012-04
1 41688U 24675LT  26070.40853009  .00000000  00000+0  00000-0 0  9994
2 41688  55.0000 330.0000 0000000   0.0000 240.0000  1.86512155    16
CTC2_L_00680012-05
1 41689U 25461HL  26070.40853009  .00000000  00000+0  00000-0 0  9999
2 41689  55.0000 330.0000 0000000   0.0000 276.0000  1.86512155    16
CTC2_L_00680012-06
1 41690U 26434P   26070.40853009  .00000000  00000+0  00000-0 0  9992
2 41690  55.0000 330.0000 0000000   0.0000 312.0000  1.86512155    19
CTC2_L_00680012-07
1 41691U 22550EI  26070.40853009  .00000000  00000+0  00000-0 0  9998
2 41691  55.0000 330.0000 0000000   0.0000 348.0000  1.86512155    19
CTC2_L_00680012-08
1 41692U 22154FT  26070.40853009  .00000000  00000+0  00000-0 0  9999
2 41692  55.0000 330.0000 0000000   0.0000  24.0000  1.86512155    11
CTC2_L_00680012-09
1 41693U 25937NC  26070.40853009  .00000000  00000+0  00000-0 0  9992
2 41693  55.0000 330.0000 0000000   0.0000  60.0000  1.86512155    12
CTC2_L_00680012-10
1 41694U 22218VY  26070.40853009  .00000000  00000+0  00000-0 0  9992
2 41694  55.0000 330.0000 0000000   0.0000  96.0000  1.86512155    12
